start=new Date('2021-09-22T00:00:00.000Z').valueOf();
sats=[{"PERIAPSIS":"545.879","TIME_SYSTEM":"UTC","SEMIMAJOR_AXIS":"6925.370","CLASSIFICATION_TYPE":"U","NORAD_CAT_ID":"46794","MEAN_ANOMALY":"262.6459","TLE_LINE1":"1 46794U 20074BH  21264.77568435 -.00000318  00000-0 -24318-5 0  9990","DECAY_DATE":null,"REV_AT_EPOCH":"5101","RCS_SIZE":"LARGE","APOAPSIS":"548.591","RA_OF_ASC_NODE":"78.5957","COUNTRY_CODE":"US","BSTAR":"-0.00000243180000","TLE_LINE2":"2 46794  53.0546  78.5957 0001958  97.4752 262.6459 15.06392956 51010","OBJECT_ID":"2020-074BH","CENTER_NAME":"EARTH","ECCENTRICITY":"0.00019580","LAUNCH_DATE":"2020-10-24","PERIOD":"95.593","MEAN_ELEMENT_THEORY":"SGP4","SITE":"AFETR","EPHEMERIS_TYPE":"0","OBJECT_TYPE":"PAYLOAD","OBJECT_NAME":"STARLINK-1942","INCLINATION":"53.0546","ELEMENT_SET_NO":"999","ARG_OF_PERICENTER":"97.4752","EPOCH":"2021-09-21T18:36:59.127840","REF_FRAME":"TEME","MEAN_MOTION_DOT":"-0.00000318","MEAN_MOTION_DDOT":"0.0000000000000","MEAN_MOTION":"15.06392956","GP_ID":"185189002","FILE":"3122258"},{"SITE":"AFETR","MEAN_ELEMENT_THEORY":"SGP4","PERIOD":"93.371","ECCENTRICITY":"0.00070660","LAUNCH_DATE":"2020-10-24","CENTER_NAME":"EARTH","GP_ID":"185189256","MEAN_MOTION":"15.42236574","FILE":"3122258","ARG_OF_PERICENTER":"352.9051","MEAN_MOTION_DOT":"0.00034523","MEAN_MOTION_DDOT":"0.0000000000000","REF_FRAME":"TEME","EPOCH":"2021-09-21T15:22:03.044064","OBJECT_NAME":"STARLINK-1943","INCLINATION":"53.0533","ELEMENT_SET_NO":"999","EPHEMERIS_TYPE":"0","OBJECT_TYPE":"PAYLOAD","DECAY_DATE":null,"TLE_LINE1":"1 46795U 20074BJ  21264.64031301  .00034523  00000-0  79655-3 0  9999","NORAD_CAT_ID":"46795","CLASSIFICATION_TYPE":"U","MEAN_ANOMALY":"7.1852","SEMIMAJOR_AXIS":"6817.647","TIME_SYSTEM":"UTC","PERIAPSIS":"434.695","TLE_LINE2":"2 46795  53.0533  37.3724 0007066 352.9051   7.1852 15.42236574 51583","BSTAR":"0.00079655000000","OBJECT_ID":"2020-074BJ","COUNTRY_CODE":"US","RA_OF_ASC_NODE":"37.3724","RCS_SIZE":"LARGE","APOAPSIS":"444.329","REV_AT_EPOCH":"5158"},{"PERIAPSIS":"545.859","SEMIMAJOR_AXIS":"6925.365","TIME_SYSTEM":"UTC","MEAN_ANOMALY":"261.3226","CLASSIFICATION_TYPE":"U","NORAD_CAT_ID":"46796","TLE_LINE1":"1 46796U 20074BK  21264.81715130  .00000592  00000-0  58669-4 0  9990","DECAY_DATE":null,"REV_AT_EPOCH":"5082","APOAPSIS":"548.601","RCS_SIZE":"LARGE","RA_OF_ASC_NODE":"68.3951","COUNTRY_CODE":"US","OBJECT_ID":"2020-074BK","TLE_LINE2":"2 46796  53.0557  68.3951 0001980  98.7988 261.3226 15.06394581 50827","BSTAR":"0.00005866900000","CENTER_NAME":"EARTH","LAUNCH_DATE":"2020-10-24","ECCENTRICITY":"0.00019800","PERIOD":"95.592","SITE":"AFETR","MEAN_ELEMENT_THEORY":"SGP4","OBJECT_TYPE":"PAYLOAD","EPHEMERIS_TYPE":"0","INCLINATION":"53.0557","ELEMENT_SET_NO":"999","OBJECT_NAME":"STARLINK-1944","REF_FRAME":"TEME","EPOCH":"2021-09-21T19:36:41.872320","MEAN_MOTION_DOT":"0.00000592","MEAN_MOTION_DDOT":"0.0000000000000","ARG_OF_PERICENTER":"98.7988","FILE":"3122077","MEAN_MOTION":"15.06394581","GP_ID":"185165539"},{"PERIOD":"94.832","MEAN_ELEMENT_THEORY":"SGP4","SITE":"AFETR","CENTER_NAME":"EARTH","LAUNCH_DATE":"2020-10-24","ECCENTRICITY":"0.00020260","EPOCH":"2021-09-21T21:41:56.814720","REF_FRAME":"TEME","MEAN_MOTION_DOT":"0.00204075","MEAN_MOTION_DDOT":"0.0000000000000","ARG_OF_PERICENTER":"117.0811","FILE":"3122258","MEAN_MOTION":"15.18481329","GP_ID":"185188752","OBJECT_TYPE":"PAYLOAD","EPHEMERIS_TYPE":"0","INCLINATION":"53.0579","ELEMENT_SET_NO":"999","OBJECT_NAME":"STARLINK-1947","TLE_LINE1":"1 46797U 20074BL  21264.90412980  .00204075  00000-0  95211-2 0  9992","DECAY_DATE":null,"PERIAPSIS":"509.036","TIME_SYSTEM":"UTC","SEMIMAJOR_AXIS":"6888.567","MEAN_ANOMALY":"243.0390","CLASSIFICATION_TYPE":"U","NORAD_CAT_ID":"46797","RA_OF_ASC_NODE":"47.4973","COUNTRY_CODE":"US","OBJECT_ID":"2020-074BL","BSTAR":"0.00952110000000","TLE_LINE2":"2 46797  53.0579  47.4973 0002026 117.0811 243.0390 15.18481329 51466","REV_AT_EPOCH":"5146","APOAPSIS":"511.827","RCS_SIZE":"LARGE"},{"ARG_OF_PERICENTER":"94.5247","MEAN_MOTION_DDOT":"0.0000000000000","MEAN_MOTION_DOT":"-0.00001101","EPOCH":"2021-09-21T20:22:27.355008","REF_FRAME":"TEME","GP_ID":"185188505","MEAN_MOTION":"15.06398730","FILE":"3122258","EPHEMERIS_TYPE":"0","OBJECT_TYPE":"PAYLOAD","OBJECT_NAME":"STARLINK-1948","ELEMENT_SET_NO":"999","INCLINATION":"53.0543","PERIOD":"95.592","MEAN_ELEMENT_THEORY":"SGP4","SITE":"AFETR","CENTER_NAME":"EARTH","ECCENTRICITY":"0.00022050","LAUNCH_DATE":"2020-10-24","COUNTRY_CODE":"US","RA_OF_ASC_NODE":"93.2658","BSTAR":"-0.00005498200000","TLE_LINE2":"2 46798  53.0543  93.2658 0002205  94.5247 265.5994 15.06398730 50815","OBJECT_ID":"2020-074BM","REV_AT_EPOCH":"5081","RCS_SIZE":"LARGE","APOAPSIS":"548.744","TLE_LINE1":"1 46798U 20074BM  21264.84892772 -.00001101  00000-0 -54982-4 0  9996","DECAY_DATE":null,"SEMIMAJOR_AXIS":"6925.352","TIME_SYSTEM":"UTC","PERIAPSIS":"545.690","NORAD_CAT_ID":"46798","CLASSIFICATION_TYPE":"U","MEAN_ANOMALY":"265.5994"},{"MEAN_ANOMALY":"268.7656","CLASSIFICATION_TYPE":"U","NORAD_CAT_ID":"47122","PERIAPSIS":"546.029","SEMIMAJOR_AXIS":"6925.367","TIME_SYSTEM":"UTC","DECAY_DATE":null,"TLE_LINE1":"1 47122U 20088A   21264.86968472  .00001390  00000-0  11221-3 0  9992","APOAPSIS":"548.435","RCS_SIZE":"LARGE","REV_AT_EPOCH":"4618","OBJECT_ID":"2020-088A","BSTAR":"0.00011221000000","TLE_LINE2":"2 47122  53.0547  58.1674 0001737  91.3532 268.7656 15.06393906 46185","RA_OF_ASC_NODE":"58.1674","COUNTRY_CODE":"US","LAUNCH_DATE":"2020-11-25","ECCENTRICITY":"0.00017370","CENTER_NAME":"EARTH","SITE":"AFETR","MEAN_ELEMENT_THEORY":"SGP4","PERIOD":"95.593","ELEMENT_SET_NO":"999","INCLINATION":"53.0547","OBJECT_NAME":"STARLINK-1777","OBJECT_TYPE":"PAYLOAD","EPHEMERIS_TYPE":"0","FILE":"3122258","MEAN_MOTION":"15.06393906","GP_ID":"185188543","EPOCH":"2021-09-21T20:52:20.759808","REF_FRAME":"TEME","MEAN_MOTION_DOT":"0.00001390","MEAN_MOTION_DDOT":"0.0000000000000","ARG_OF_PERICENTER":"91.3532"},{"OBJECT_NAME":"STARLINK-1785","ELEMENT_SET_NO":"999","INCLINATION":"53.0558","EPHEMERIS_TYPE":"0","OBJECT_TYPE":"PAYLOAD","MEAN_MOTION":"15.06399261","GP_ID":"185189792","FILE":"3122258","ARG_OF_PERICENTER":"95.5350","REF_FRAME":"TEME","EPOCH":"2021-09-21T20:31:44.336064","MEAN_MOTION_DDOT":"0.0000000000000","MEAN_MOTION_DOT":"0.00000723","ECCENTRICITY":"0.00015390","LAUNCH_DATE":"2020-11-25","CENTER_NAME":"EARTH","SITE":"AFETR","MEAN_ELEMENT_THEORY":"SGP4","PERIOD":"95.592","RCS_SIZE":"LARGE","APOAPSIS":"548.282","REV_AT_EPOCH":"4611","BSTAR":"0.00006740800000","TLE_LINE2":"2 47124  53.0558  63.2415 0001539  95.5350 264.5814 15.06399261 46116","OBJECT_ID":"2020-088C","RA_OF_ASC_NODE":"63.2415","COUNTRY_CODE":"US","CLASSIFICATION_TYPE":"U","NORAD_CAT_ID":"47124","MEAN_ANOMALY":"264.5814","PERIAPSIS":"546.150","TIME_SYSTEM":"UTC","SEMIMAJOR_AXIS":"6925.351","DECAY_DATE":null,"TLE_LINE1":"1 47124U 20088C   21264.85537426  .00000723  00000-0  67408-4 0  9992"},{"MEAN_ELEMENT_THEORY":"SGP4","SITE":"AFETR","PERIOD":"95.593","LAUNCH_DATE":"2020-11-25","ECCENTRICITY":"0.00016630","CENTER_NAME":"EARTH","FILE":"3122258","MEAN_MOTION":"15.06393448","GP_ID":"185189545","REF_FRAME":"TEME","EPOCH":"2021-09-21T19:53:57.424704","MEAN_MOTION_DDOT":"0.0000000000000","MEAN_MOTION_DOT":"-0.00000815","ARG_OF_PERICENTER":"98.3750","INCLINATION":"53.0565","ELEMENT_SET_NO":"999","OBJECT_NAME":"STARLINK-1812","OBJECT_TYPE":"PAYLOAD","EPHEMERIS_TYPE":"0","DECAY_DATE":null,"TLE_LINE1":"1 47126U 20088E   21264.82913686 -.00000815  00000-0 -35850-4 0  9997","MEAN_ANOMALY":"261.7428","CLASSIFICATION_TYPE":"U","NORAD_CAT_ID":"47126","PERIAPSIS":"546.082","TIME_SYSTEM":"UTC","SEMIMAJOR_AXIS":"6925.369","OBJECT_ID":"2020-088E","TLE_LINE2":"2 47126  53.0565  58.3532 0001663  98.3750 261.7428 15.06393448 46182","BSTAR":"-0.00003585000000","RA_OF_ASC_NODE":"58.3532","COUNTRY_CODE":"US","APOAPSIS":"548.385","RCS_SIZE":"LARGE","REV_AT_EPOCH":"4618"},{"MEAN_ELEMENT_THEORY":"SGP4","SITE":"AFETR","PERIOD":"90.614","LAUNCH_DATE":"2020-11-25","ECCENTRICITY":"0.00074070","CENTER_NAME":"EARTH","FILE":"3122258","GP_ID":"185188293","MEAN_MOTION":"15.89164219","MEAN_MOTION_DDOT":"0.0000581150000","MEAN_MOTION_DOT":"0.00358246","REF_FRAME":"TEME","EPOCH":"2021-09-21T16:44:14.154720","ARG_OF_PERICENTER":"275.4354","ELEMENT_SET_NO":"999","INCLINATION":"53.0537","OBJECT_NAME":"STARLINK-1836","OBJECT_TYPE":"PAYLOAD","EPHEMERIS_TYPE":"0","DECAY_DATE":null,"TLE_LINE1":"1 47127U 20088F   21264.69738605  .00358246  58115-4  12271-2 0  9995","MEAN_ANOMALY":"84.5826","NORAD_CAT_ID":"47127","CLASSIFICATION_TYPE":"U","TIME_SYSTEM":"UTC","SEMIMAJOR_AXIS":"6682.762","PERIAPSIS":"299.677","OBJECT_ID":"2020-088F","BSTAR":"0.00122710000000","TLE_LINE2":"2 47127  53.0537 349.3581 0007407 275.4354  84.5826 15.89164219 47142","COUNTRY_CODE":"US","RA_OF_ASC_NODE":"349.3581","APOAPSIS":"309.577","RCS_SIZE":"LARGE","REV_AT_EPOCH":"4714"},{"TLE_LINE2":"2 47128  53.0551  38.2327 0006895  48.8998 311.2586 15.06405380 46460","BSTAR":"-0.00005191900000","OBJECT_ID":"2020-088G","RA_OF_ASC_NODE":"38.2327","COUNTRY_CODE":"US","RCS_SIZE":"LARGE","APOAPSIS":"551.972","REV_AT_EPOCH":"4646","DECAY_DATE":null,"TLE_LINE1":"1 47128U 20088G   21264.85310625 -.00001058  00000-0 -51919-4 0  9990","CLASSIFICATION_TYPE":"U","NORAD_CAT_ID":"47128","MEAN_ANOMALY":"311.2586","PERIAPSIS":"542.422","SEMIMAJOR_AXIS":"6925.332","TIME_SYSTEM":"UTC","MEAN_MOTION":"15.06405380","GP_ID":"185189041","FILE":"3122258","ARG_OF_PERICENTER":"48.8998","EPOCH":"2021-09-21T20:28:28.380000","REF_FRAME":"TEME","MEAN_MOTION_DDOT":"0.0000000000000","MEAN_MOTION_DOT":"-0.00001058","OBJECT_NAME":"STARLINK-1837","INCLINATION":"53.0551","ELEMENT_SET_NO":"999","EPHEMERIS_TYPE":"0","OBJECT_TYPE":"PAYLOAD","MEAN_ELEMENT_THEORY":"SGP4","SITE":"AFETR","PERIOD":"95.592","ECCENTRICITY":"0.00068950","LAUNCH_DATE":"2020-11-25","CENTER_NAME":"EARTH"}];
